{
"type": "FeatureCollection",
"name": "data_animation",
"crs": { "type": "name", "properties": { "name": "urn:ogc:def:crs:OGC:1.3:CRS84" } },
"features": [
{"type":"Feature","properties":{"id":2,"Date":"du 05/10 au 16/10/2026","Heure":null,"Nom":"Le reflet de nos âmes","Lieu":"Espace Loisirs\n3 chemin des Cratères Egueulés\n-  Sauteyras","Description":"Mise en valeur d'une exposition de photographies réalisée en 2022 par Franck, un photographe bénévole, qui propose des portraits des adhérents du GEM de Cournon,\nLes Groupes d'Entraide Mutuelle sont des lieux où les personnes adultes souffrant de troubles psychiques et d'isolement peuvent se retrouver pour discuter et partager des activités communes. Le but étant de restaurer et de maintenir des liens sociaux, de rompre l'isolement.","Infos":"Gratuit","Public":"Tout public","date_text":"Du 5 au 16 octobre","titre":"EXPOSITION"},"geometry":{"type":"Point","coordinates":[2.981046447368181,45.666226199845603]}},
{"type":"Feature","properties":{"id":3,"Date":"2026/10/06","Heure":"17h30-19h00","Nom":"A la découverte de la danse libre avec Léah","Lieu":"Pôle Ados de Montcervier - Vic-le-Comte","Description":"A travers différents petits exercices, Léah va vous emmener à vous mettre en mouvement, à observer et à ressentir votre corps.\nCe n'est pas un cours de danse, chacun vient avec ses ressources et capacités.","Infos":"20 personnes maximum, gratuit, sur inscription","Public":"S'adresse aux jeunes (-18 ans)","date_text":"Mardi 6 octobre","titre":"DANSE"},"geometry":{"type":"Point","coordinates":[3.248066547125114,45.644757997044934]}},
{"type":"Feature","properties":{"id":4,"Date":"2026/10/08","Heure":"18h00-19h30","Nom":"Musique et santé mentale : quand le corps et l'esprit s'accordent","Lieu":"Médiathéque Municipale\n- 3 rue de Lignat Saint-Georges-sur-Allier","Description":"Un atelier d'exploration du lien entre corps et esprit grâce à la médiation\nmusicale sera proposé par une psychologue de la santé (association EIPAS, Maya CORMAN)\nAucun pré-requis.","Infos":"8 personnes maximum, gratuit, sur inscription","Public":"A partir de 18 ans","date_text":"Jeudi 8 octobre","titre":"ATELIER"},"geometry":{"type":"Point","coordinates":[3.246688731491049,45.710943246043449]}},
{"type":"Feature","properties":{"id":5,"Date":"2026/10/12","Heure":"18h00-20h00","Nom":"A la découverte de la danse libre avec Léah","Lieu":"Salle polyvalente - Espace J. Prévert\n- 8 rue de la Mairie\n- La Roche-Blanche","Description":"Il ne s’agit pas d’un cours de danse mais d’un atelier où le corps est mis en jeu pour vivre différentes expériences émotionnelles. Les participants sont accueillis avec leur façon d’être et de se sentir dans le moment présent, avec leurs propres ressources et capacités.\nAucun pré-requis","Infos":"5 à 20 personnes, gratuit, sur inscription","Public":"A partir de 18 ans","date_text":"Lundi 12 octobre","titre":"DANSE"},"geometry":{"type":"Point","coordinates":[3.126919053228139,45.699993874760168]}},
{"type":"Feature","properties":{"id":6,"Date":"2026/10/14","Heure":"14h00-16h30","Nom":"Land Art enfant-parent","Lieu":"Bibliothèque de la Roche-Blanche","Description":"Créez des œuvres éphémères en utilisant les matériaux offerts par la nature. Les enfants devront faire travailler leur créativité et leur imagination en jouant sur les formes et les couleurs.","Infos":"Atelier parent-enfant (5-12 ans), 20 personnes maximum, gratuit, sur inscription","Public":"Tout public","date_text":"Mercredi 14 octobre","titre":"ATELIER PARENT-ENFANT"},"geometry":{"type":"Point","coordinates":[3.127421979192335,45.700828650681594]}},
{"type":"Feature","properties":{"id":7,"Date":"2026/10/14","Heure":"15h00","Nom":"Les petites histoires qui font du bien à la tête.\n","Lieu":"Médiathèque de Vic-le-Comte","Description":"Laissez les images des kamishibaïs vous emmener dans des histoires pleines d’émotions, de rêves et de petits soucis qui trouvent leur chemin. Un temps d’écoute doux et amusant pour explorer ce qui se passe dans nos têtes et repartir avec le sourire.","Infos":"Gratuit, sur inscription","Public":"Tout public","date_text":"Mercredi 14 octobre","titre":"KAMISHIBAI"},"geometry":{"type":"Point","coordinates":[3.243507457253685,45.643494623839729]}},
{"type":"Feature","properties":{"id":8,"Date":"2026/10/14","Heure":"18h30-20h00","Nom":"\"Un voyage vers la mémoire\"","Lieu":"Salle Chabanne\n- Mairie de Saint Amant Tallende","Description":"Nous proposons une animation divertissante : en première partie, la diffusion du documentaire fiction retraçant une aventure sportive, solidaire, sociale et artistique, depuis un départ à vélo en novembre 2024 de Vic-le-Comte vers la Bretagne, jusqu'à la 25ème édition du Rendez-vous du Carnet de Voyage à Clermont-Ferrand,\nDans une deuxième partie, nous échangerons avec le public et présenterons le carnet de voyage réalisé par les résidents de l'EHPAD de Vic le Comte","Infos":"Gratuit","Public":"Tout public","date_text":"Mercredi 14 octobre","titre":"DOCUMENTAIRE"},"geometry":{"type":"Point","coordinates":[3.107398035430613,45.669615848493187]}},
{"type":"Feature","properties":{"id":9,"Date":"2026/10/15","Heure":"18h00-19h30","Nom":"Projection & échanges \"Là où le ciel est bleu\"","Lieu":"Espace Loisirs 3 chemin des Cratères Egueulés\n-  Sauteyras","Description":"A travers ce documentaire, la volonté est de renverser les obstacles qui amènent trop souvent à l’incompréhension, au rejet ou à la stigmatisation, et qui éloignent les personnes vivant avec des troubles psychiques. A la place, sont mis en lumière la solidarité, la place et la visibilité des gémois.es et les initiatives thérapeutiques innovantes, qui sortent des normes et qui soignent des personnes déjà trop isolées.","Infos":"Gratuit","Public":"Tout public","date_text":"Jeudi 15 octobre","titre":"DOCUMENTAIRE"},"geometry":{"type":"Point","coordinates":[2.980905200076109,45.66610057027269]}},
{"type":"Feature","properties":{"id":10,"Date":"2026/10/16","Heure":"18h00","Nom":"Parents & ados : parlons-en !","Lieu":"Salle des fêtes\n- Rue du 08 mai\n- Orcet","Description":"L’adolescence, une période de changements, d’émotions et de découvertes… Comment mieux accompagner votre ado au quotidien ?\nVenez échanger avec des experts et d’autres parents lors d’une soirée alliant mini-conférence pour mieux comprendre l’adolescence et stands d'informations.\nLe tout autour d'un moment de convivialité pour créer du lien et trouver des ressources !\nUne soirée proposée par les Pôles Ado et le CLS de Mond'Arverne Communauté.","Infos":"Gratuit","Public":"Tout public","date_text":"Vendredi 16 octobre","titre":"SOIRÉE D'INFOS"},"geometry":{"type":"Point","coordinates":[3.169138082839568,45.702851641432197]}},
{"type":"Feature","properties":{"id":11,"Date":"2026/10/21","Heure":"20h30","Nom":"\"Les rêves dansants : dans les pas de Pina Bausch\"","Lieu":"Halle du Jeu de Paume\n- Vic-le-Comte","Description":"En 2008, Pina Bausch, quelques mois avant sa mort, décide de reprendre son fameux spectacle Kontakthof, non plus avec sa troupe, mais avec des adolescents de 14 à 18 ans qui ne sont jamais montés sur scène et n'ont jamais dansé. Vus des coulisses, naissance d'une passion et premiers émois dansés.","Infos":"1h30, VOST\nBilletterie Ciné Parc : 5.50 € normal  / 3.50 € réduit / Abonnés","Public":"Tout public","date_text":"Vendredi 21 octobre","titre":"PROJECTION"},"geometry":{"type":"Point","coordinates":[3.245613860999478,45.642028332884379]}},
{"type":"Feature","properties":{"id":12,"Date":"2026/10/07","Heure":"10h30","Nom":"Bébés nomades","Lieu":"Médiathèque de Manglieu","Description":"A destination des tout-petits, ce rendez-vous lecture leur permet de se laisser emporter par des histoires adaptées, variées et poétiques.\n\nLectures pour tout-petits / 0-3 ans / 30 min","Infos":"Gratuit, inscription obligatoire à partir du 07 septembre","Public":"Tout public","date_text":"Mercredi 7 octobre","titre":"ATELIER DE LECTURE"},"geometry":{"type":"Point","coordinates":[3.351076908070615,45.611137688264876]}},
{"type":"Feature","properties":{"id":13,"Date":"2026/10/14","Heure":"09h30 et 10h30","Nom":"Rencontres musicales Parents-Bébés\n","Lieu":"Médiathèque de la Sauvetat","Description":"Cécile Paulet vous invite à entrer tout en douceur dans le monde du rêve, de l’imaginaire, de la musique. Les tout-petits écoutent, explorent en toute liberté des instruments adaptés, dans la créativité et le plaisir.\n\nEveil musical / 0-3 ans / 45 minutes / 10 personnes","Infos":"Gratuit, inscription obligatoire à partir du 14 septembre","Public":"Tout public","date_text":"Mercredi 14 octobre","titre":"EVEIL MUSICAL"},"geometry":{"type":"Point","coordinates":[3.169598686732176,45.634986899485718]}},
{"type":"Feature","properties":{"id":14,"Date":"2026/10/16","Heure":"09h30 - 11h30","Nom":"Bébés Lecteurs","Lieu":"Médiathèque de Vic-le-Comte","Description":"Animé par Laurence Fusco\nA destination des tout-petits et de leurs accompagnants, ce rendez-vous lecture leur permet de découvrir les livres et le plaisir de les manipuler.\n\nLecture tout-petits / 0-3 ans","Infos":"Gratuit, sans inscription","Public":"Tout public","date_text":"Vendredi 16 octobre","titre":"ATELIER LECTURE"},"geometry":{"type":"Point","coordinates":[3.243569190802872,45.643541005149771]}},
{"type":"Feature","properties":{"id":15,"Date":"2026/10/10","Heure":"14h00 - 17h00","Nom":"Echecs et Mat !","Lieu":"Médiathèque des Martres-de-Veyre","Description":"Animé par Guillaume Paugam\nInitiation, pratique, jeux : les échecs dans tous leurs états… \nStratégie et réflexion seront au cœur de cette activité.\n\nAtelier d’échecs / Tout public à partir de 8 ans","Infos":"Gratuit, sans inscription","Public":"Tout public","date_text":"Samedi 10 octobre","titre":"ANIMATION"},"geometry":{"type":"Point","coordinates":[3.192222222583809,45.68685801176516]}}
]
}
